CCSDS_OMM_VERS = 2.0
CREATION_DATE  = 
ORIGINATOR     = 

OBJECT_NAME    = IDEFIX & ARIANE 42P R/B
OBJECT_ID      = 2002-021B
CENTER_NAME    = EARTH
REF_FRAME      = TEME
TIME_SYSTEM    = UTC
MEAN_ELEMENT_THEORY = SGP/SGP4

EPOCH          = 2025-12-09T18:52:16.268160
MEAN_MOTION    = 14.30947266
ECCENTRICITY   = .0012933
INCLINATION    = 98.5781
RA_OF_ASC_NODE = 278.5155
ARG_OF_PERICENTER = 91.5492
MEAN_ANOMALY   = 268.7172

EPHEMERIS_TYPE = 0
CLASSIFICATION_TYPE = U
NORAD_CAT_ID   = 27422
ELEMENT_SET_NO = 999
REV_AT_EPOCH   = 23116
BSTAR          = .24143E-3
MEAN_MOTION_DOT = .591E-5
MEAN_MOTION_DDOT = 0

CCSDS_OMM_VERS = 2.0
CREATION_DATE  = 
ORIGINATOR     = 

OBJECT_NAME    = AQUA
OBJECT_ID      = 2002-022A
CENTER_NAME    = EARTH
REF_FRAME      = TEME
TIME_SYSTEM    = UTC
MEAN_ELEMENT_THEORY = SGP/SGP4

EPOCH          = 2025-12-10T02:07:50.280096
MEAN_MOTION    = 14.61798592
ECCENTRICITY   = .0000989
INCLINATION    = 98.4035
RA_OF_ASC_NODE = 304.9248
ARG_OF_PERICENTER = 114.4026
MEAN_ANOMALY   = 308.8214

EPHEMERIS_TYPE = 0
CLASSIFICATION_TYPE = U
NORAD_CAT_ID   = 27424
ELEMENT_SET_NO = 999
REV_AT_EPOCH   = 25564
BSTAR          = .34961E-3
MEAN_MOTION_DOT = .1696E-4
MEAN_MOTION_DDOT = 0

CCSDS_OMM_VERS = 2.0
CREATION_DATE  = 
ORIGINATOR     = 

OBJECT_NAME    = CZ-4B R/B
OBJECT_ID      = 2002-024C
CENTER_NAME    = EARTH
REF_FRAME      = TEME
TIME_SYSTEM    = UTC
MEAN_ELEMENT_THEORY = SGP/SGP4

EPOCH          = 2025-12-10T04:06:37.840320
MEAN_MOTION    = 14.14527135
ECCENTRICITY   = .0049164
INCLINATION    = 98.9000
RA_OF_ASC_NODE = 32.9517
ARG_OF_PERICENTER = 277.3474
MEAN_ANOMALY   = 150.9105

EPHEMERIS_TYPE = 0
CLASSIFICATION_TYPE = U
NORAD_CAT_ID   = 27432
ELEMENT_SET_NO = 999
REV_AT_EPOCH   = 21658
BSTAR          = .76551E-4
MEAN_MOTION_DOT = .103E-5
MEAN_MOTION_DDOT = 0

CCSDS_OMM_VERS = 2.0
CREATION_DATE  = 
ORIGINATOR     = 

OBJECT_NAME    = MIDORI II (ADEOS-II)
OBJECT_ID      = 2002-056A
CENTER_NAME    = EARTH
REF_FRAME      = TEME
TIME_SYSTEM    = UTC
MEAN_ELEMENT_THEORY = SGP/SGP4

EPOCH          = 2025-12-09T18:36:03.849120
MEAN_MOTION    = 14.29202884
ECCENTRICITY   = .000004
INCLINATION    = 98.7631
RA_OF_ASC_NODE = 296.7158
ARG_OF_PERICENTER = 80.5914
MEAN_ANOMALY   = 279.5272

EPHEMERIS_TYPE = 0
CLASSIFICATION_TYPE = U
NORAD_CAT_ID   = 27597
ELEMENT_SET_NO = 999
REV_AT_EPOCH   = 19745
BSTAR          = .22465E-3
MEAN_MOTION_DOT = .525E-5
MEAN_MOTION_DDOT = 0

CCSDS_OMM_VERS = 2.0
CREATION_DATE  = 
ORIGINATOR     = 

OBJECT_NAME    = H-2A R/B
OBJECT_ID      = 2002-056E
CENTER_NAME    = EARTH
REF_FRAME      = TEME
TIME_SYSTEM    = UTC
MEAN_ELEMENT_THEORY = SGP/SGP4

EPOCH          = 2025-12-09T19:29:10.834944
MEAN_MOTION    = 14.33672685
ECCENTRICITY   = .0071441
INCLINATION    = 98.3061
RA_OF_ASC_NODE = 302.6852
ARG_OF_PERICENTER = 69.7242
MEAN_ANOMALY   = 313.7706

EPHEMERIS_TYPE = 0
CLASSIFICATION_TYPE = U
NORAD_CAT_ID   = 27601
ELEMENT_SET_NO = 999
REV_AT_EPOCH   = 20123
BSTAR          = .23925E-3
MEAN_MOTION_DOT = .642E-5
MEAN_MOTION_DDOT = 0

CCSDS_OMM_VERS = 2.0
CREATION_DATE  = 
ORIGINATOR     = 

OBJECT_NAME    = CZ-4B R/B
OBJECT_ID      = 2003-049C
CENTER_NAME    = EARTH
REF_FRAME      = TEME
TIME_SYSTEM    = UTC
MEAN_ELEMENT_THEORY = SGP/SGP4

EPOCH          = 2025-12-09T10:22:09.482016
MEAN_MOTION    = 14.54905026
ECCENTRICITY   = .00488392
INCLINATION    = 98.6786
RA_OF_ASC_NODE = 329.8711
ARG_OF_PERICENTER = 146.0149
MEAN_ANOMALY   = 214.4192

EPHEMERIS_TYPE = 0
CLASSIFICATION_TYPE = U
NORAD_CAT_ID   = 28059
ELEMENT_SET_NO = 999
REV_AT_EPOCH   = 17347
BSTAR          = .17889283E-3
MEAN_MOTION_DOT = .73E-5
MEAN_MOTION_DDOT = 0

CCSDS_OMM_VERS = 2.0
CREATION_DATE  = 
ORIGINATOR     = 

OBJECT_NAME    = CZ-2C R/B
OBJECT_ID      = 2004-012C
CENTER_NAME    = EARTH
REF_FRAME      = TEME
TIME_SYSTEM    = UTC
MEAN_ELEMENT_THEORY = SGP/SGP4

EPOCH          = 2025-12-10T03:59:11.944608
MEAN_MOTION    = 15.55245067
ECCENTRICITY   = .0016651
INCLINATION    = 97.7424
RA_OF_ASC_NODE = 36.5745
ARG_OF_PERICENTER = 280.6266
MEAN_ANOMALY   = 79.3112

EPHEMERIS_TYPE = 0
CLASSIFICATION_TYPE = U
NORAD_CAT_ID   = 28222
ELEMENT_SET_NO = 999
REV_AT_EPOCH   = 19032
BSTAR          = .69779E-3
MEAN_MOTION_DOT = .47588E-3
MEAN_MOTION_DDOT = 0

CCSDS_OMM_VERS = 2.0
CREATION_DATE  = 
ORIGINATOR     = 

OBJECT_NAME    = SL-16 R/B
OBJECT_ID      = 2004-021B
CENTER_NAME    = EARTH
REF_FRAME      = TEME
TIME_SYSTEM    = UTC
MEAN_ELEMENT_THEORY = SGP/SGP4

EPOCH          = 2025-12-10T03:31:01.867296
MEAN_MOTION    = 14.14581454
ECCENTRICITY   = .0005437
INCLINATION    = 71.0020
RA_OF_ASC_NODE = 60.4073
ARG_OF_PERICENTER = 204.3522
MEAN_ANOMALY   = 155.7344

EPHEMERIS_TYPE = 0
CLASSIFICATION_TYPE = U
NORAD_CAT_ID   = 28353
ELEMENT_SET_NO = 999
REV_AT_EPOCH   = 11017
BSTAR          = -.76829E-4
MEAN_MOTION_DOT = -.195E-5
MEAN_MOTION_DDOT = 0

CCSDS_OMM_VERS = 2.0
CREATION_DATE  = 
ORIGINATOR     = 

OBJECT_NAME    = CZ-4B R/B
OBJECT_ID      = 2004-035C
CENTER_NAME    = EARTH
REF_FRAME      = TEME
TIME_SYSTEM    = UTC
MEAN_ELEMENT_THEORY = SGP/SGP4

EPOCH          = 2025-12-10T01:43:22.317312
MEAN_MOTION    = 15.27299125
ECCENTRICITY   = .0031674
INCLINATION    = 97.3611
RA_OF_ASC_NODE = 14.4511
ARG_OF_PERICENTER = 287.4850
MEAN_ANOMALY   = 72.2928

EPHEMERIS_TYPE = 0
CLASSIFICATION_TYPE = U
NORAD_CAT_ID   = 28415
ELEMENT_SET_NO = 999
REV_AT_EPOCH   = 16622
BSTAR          = .40604E-3
MEAN_MOTION_DOT = .10947E-3
MEAN_MOTION_DDOT = 0

CCSDS_OMM_VERS = 2.0
CREATION_DATE  = 
ORIGINATOR     = 

OBJECT_NAME    = CZ-2C R/B
OBJECT_ID      = 2004-046B
CENTER_NAME    = EARTH
REF_FRAME      = TEME
TIME_SYSTEM    = UTC
MEAN_ELEMENT_THEORY = SGP/SGP4

EPOCH          = 2025-12-10T03:42:00.301824
MEAN_MOTION    = 14.26938601
ECCENTRICITY   = .0140586
INCLINATION    = 98.1988
RA_OF_ASC_NODE = 259.6927
ARG_OF_PERICENTER = 59.8955
MEAN_ANOMALY   = 301.6079

EPHEMERIS_TYPE = 0
CLASSIFICATION_TYPE = U
NORAD_CAT_ID   = 28480
ELEMENT_SET_NO = 999
REV_AT_EPOCH   = 9573
BSTAR          = .12696E-3
MEAN_MOTION_DOT = .302E-5
MEAN_MOTION_DDOT = 0

CCSDS_OMM_VERS = 2.0
CREATION_DATE  = 
ORIGINATOR     = 

OBJECT_NAME    = ARIANE 5 R/B
OBJECT_ID      = 2004-049H
CENTER_NAME    = EARTH
REF_FRAME      = TEME
TIME_SYSTEM    = UTC
MEAN_ELEMENT_THEORY = SGP/SGP4

EPOCH          = 2025-12-10T03:49:39.684576
MEAN_MOTION    = 14.85001957
ECCENTRICITY   = .0083375
INCLINATION    = 98.2522
RA_OF_ASC_NODE = 144.3483
ARG_OF_PERICENTER = 281.4522
MEAN_ANOMALY   = 77.7337

EPHEMERIS_TYPE = 0
CLASSIFICATION_TYPE = U
NORAD_CAT_ID   = 28499
ELEMENT_SET_NO = 999
REV_AT_EPOCH   = 13250
BSTAR          = .1932E-3
MEAN_MOTION_DOT = .1688E-4
MEAN_MOTION_DDOT = 0

CCSDS_OMM_VERS = 2.0
CREATION_DATE  = 
ORIGINATOR     = 

OBJECT_NAME    = CZ-2D R/B
OBJECT_ID      = 2005-024B
CENTER_NAME    = EARTH
REF_FRAME      = TEME
TIME_SYSTEM    = UTC
MEAN_ELEMENT_THEORY = SGP/SGP4

EPOCH          = 2025-12-09T18:11:41.252640
MEAN_MOTION    = 15.52938815
ECCENTRICITY   = .0005945
INCLINATION    = 97.3636
RA_OF_ASC_NODE = 351.1265
ARG_OF_PERICENTER = 16.9148
MEAN_ANOMALY   = 343.2302

EPHEMERIS_TYPE = 0
CLASSIFICATION_TYPE = U
NORAD_CAT_ID   = 28738
ELEMENT_SET_NO = 999
REV_AT_EPOCH   = 12579
BSTAR          = .61533E-3
MEAN_MOTION_DOT = .38338E-3
MEAN_MOTION_DDOT = 0

