IDEFIX & ARIANE 42P R/B 
1 27422U 02021B   25343.78629940  .00000591  00000+0  24143-3 0  9995
2 27422  98.5781 278.5155 0012933  91.5492 268.7172 14.30947266231166
AQUA                    
1 27424U 02022A   25344.08877639  .00001696  00000+0  34961-3 0  9998
2 27424  98.4035 304.9248 0000989 114.4026 308.8214 14.61798592255644
CZ-4B R/B               
1 27432U 02024C   25344.17127130  .00000103  00000+0  76551-4 0  9997
2 27432  98.9000  32.9517 0049164 277.3474 150.9105 14.14527135216587
MIDORI II (ADEOS-II)    
1 27597U 02056A   25343.77504455  .00000525  00000+0  22465-3 0  9990
2 27597  98.7631 296.7158 0000040  80.5914 279.5272 14.29202884197455
H-2A R/B                
1 27601U 02056E   25343.81193096  .00000642  00000+0  23925-3 0  9998
2 27601  98.3061 302.6852 0071441  69.7242 313.7706 14.33672685201238
CZ-4B R/B               
1 28059U 03049C   25343.43205419  .00000730  00000+0  17889-3 0  9990
2 28059  98.6786 329.8711 0048839 146.0149 214.4192 14.54905026173479
CZ-2C R/B               
1 28222U 04012C   25344.16611047  .00047588  00000+0  69779-3 0  9999
2 28222  97.7424  36.5745 0016651 280.6266  79.3112 15.55245067190328
SL-16 R/B               
1 28353U 04021B   25344.14654939 -.00000195  00000+0 -76829-4 0  9999
2 28353  71.0020  60.4073 0005437 204.3522 155.7344 14.14581454110176
CZ-4B R/B               
1 28415U 04035C   25344.07178608  .00010947  00000+0  40604-3 0  9994
2 28415  97.3611  14.4511 0031674 287.4850  72.2928 15.27299125166220
CZ-2C R/B               
1 28480U 04046B   25344.15417016  .00000302  00000+0  12696-3 0  9990
2 28480  98.1988 259.6927 0140586  59.8955 301.6079 14.26938601 95732
ARIANE 5 R/B            
1 28499U 04049H   25344.15948709  .00001688  00000+0  19320-3 0  9990
2 28499  98.2522 144.3483 0083375 281.4522  77.7337 14.85001957132504
CZ-2D R/B               
1 28738U 05024B   25343.75811635  .00038338  00000+0  61533-3 0  9997
2 28738  97.3636 351.1265 0005945  16.9148 343.2302 15.52938815125797
